ORBCOMM FM37            
1 33064U 08031E   24194.93981608  .00002734  00000+0  41477-3 0  9993
2 33064  48.4389 153.1018 0006131   0.0117  41.5545 14.76791735863857
ORBCOMM FM40            
1 33065U 08031F   24194.87594278  .00003573  00000+0  51590-3 0  9999
2 33065  48.4413 142.1444 0007313  10.4598  22.9392 14.78202988863894
ORBCOMM FM109           
1 40086U 14040A   24194.95063416  .00001256  00000+0  31511-3 0  9998
2 40086  47.0022 176.9746 0001971 226.1155 133.9567 14.56807156531573
ORBCOMM FM107           
1 40087U 14040B   24194.91584155  .00000728  00000+0  19811-3 0  9995
2 40087  47.0038 178.1096 0000908 207.6102 152.4735 14.56812839531643
ORBCOMM FM106           
1 40088U 14040C   24194.93288520  .00001631  00000+0  31820-3 0  9993
2 40088  47.0622  26.4597 0018220 289.8987  69.9940 14.67282353533616
ORBCOMM FM111           
1 40089U 14040D   24194.93301309  .00002411  00000+0  32256-3 0  9996
2 40089  47.0040 279.9289 0032759   9.2704 350.8790 14.82217809539823
ORBCOMM FM104           
1 40090U 14040E   24194.74679756  .00000709  00000+0  20046-3 0  9993
2 40090  47.0036 208.5372 0015956  93.6368 266.6341 14.55287212531153
