<?xml version="1.0" encoding="UTF-8"?>
<ndm xmlns:xsi="http://www.w3.org/2001/XMLSchema-instance" xsi:noNamespaceSchemaLocation="https://sanaregistry.org/r/ndmxml_unqualified/ndmxml-2.0.0-master-2.0.xsd">
<omm id="CCSDS_OMM_VERS" version="2.0">
<header><CREATION_DATE/><ORIGINATOR/></header><body><segment><metadata><OBJECT_NAME>ORBCOMM FM37</OBJECT_NAME><OBJECT_ID>2008-031E</OBJECT_ID><CENTER_NAME>EARTH</CENTER_NAME><REF_FRAME>TEME</REF_FRAME><TIME_SYSTEM>UTC</TIME_SYSTEM><MEAN_ELEMENT_THEORY>SGP4</MEAN_ELEMENT_THEORY></metadata><data><meanElements><EPOCH>2024-07-12T22:33:20.109312</EPOCH><MEAN_MOTION>14.76791735</MEAN_MOTION><ECCENTRICITY>.0006131</ECCENTRICITY><INCLINATION>48.4389</INCLINATION><RA_OF_ASC_NODE>153.1018</RA_OF_ASC_NODE><ARG_OF_PERICENTER>0.0117</ARG_OF_PERICENTER><MEAN_ANOMALY>41.5545</MEAN_ANOMALY></meanElements><tleParameters><EPHEMERIS_TYPE>0</EPHEMERIS_TYPE><CLASSIFICATION_TYPE>U</CLASSIFICATION_TYPE><NORAD_CAT_ID>33064</NORAD_CAT_ID><ELEMENT_SET_NO>999</ELEMENT_SET_NO><REV_AT_EPOCH>86385</REV_AT_EPOCH><BSTAR>.41477E-3</BSTAR><MEAN_MOTION_DOT>.2734E-4</MEAN_MOTION_DOT><MEAN_MOTION_DDOT>0</MEAN_MOTION_DDOT></tleParameters></data></segment></body></omm>
<omm id="CCSDS_OMM_VERS" version="2.0">
<header><CREATION_DATE/><ORIGINATOR/></header><body><segment><metadata><OBJECT_NAME>ORBCOMM FM40</OBJECT_NAME><OBJECT_ID>2008-031F</OBJECT_ID><CENTER_NAME>EARTH</CENTER_NAME><REF_FRAME>TEME</REF_FRAME><TIME_SYSTEM>UTC</TIME_SYSTEM><MEAN_ELEMENT_THEORY>SGP4</MEAN_ELEMENT_THEORY></metadata><data><meanElements><EPOCH>2024-07-12T21:01:21.456192</EPOCH><MEAN_MOTION>14.78202988</MEAN_MOTION><ECCENTRICITY>.0007313</ECCENTRICITY><INCLINATION>48.4413</INCLINATION><RA_OF_ASC_NODE>142.1444</RA_OF_ASC_NODE><ARG_OF_PERICENTER>10.4598</ARG_OF_PERICENTER><MEAN_ANOMALY>22.9392</MEAN_ANOMALY></meanElements><tleParameters><EPHEMERIS_TYPE>0</EPHEMERIS_TYPE><CLASSIFICATION_TYPE>U</CLASSIFICATION_TYPE><NORAD_CAT_ID>33065</NORAD_CAT_ID><ELEMENT_SET_NO>999</ELEMENT_SET_NO><REV_AT_EPOCH>86389</REV_AT_EPOCH><BSTAR>.5159E-3</BSTAR><MEAN_MOTION_DOT>.3573E-4</MEAN_MOTION_DOT><MEAN_MOTION_DDOT>0</MEAN_MOTION_DDOT></tleParameters></data></segment></body></omm>
<omm id="CCSDS_OMM_VERS" version="2.0">
<header><CREATION_DATE/><ORIGINATOR/></header><body><segment><metadata><OBJECT_NAME>ORBCOMM FM109</OBJECT_NAME><OBJECT_ID>2014-040A</OBJECT_ID><CENTER_NAME>EARTH</CENTER_NAME><REF_FRAME>TEME</REF_FRAME><TIME_SYSTEM>UTC</TIME_SYSTEM><MEAN_ELEMENT_THEORY>SGP4</MEAN_ELEMENT_THEORY></metadata><data><meanElements><EPOCH>2024-07-12T22:48:54.791424</EPOCH><MEAN_MOTION>14.56807156</MEAN_MOTION><ECCENTRICITY>.0001971</ECCENTRICITY><INCLINATION>47.0022</INCLINATION><RA_OF_ASC_NODE>176.9746</RA_OF_ASC_NODE><ARG_OF_PERICENTER>226.1155</ARG_OF_PERICENTER><MEAN_ANOMALY>133.9567</MEAN_ANOMALY></meanElements><tleParameters><EPHEMERIS_TYPE>0</EPHEMERIS_TYPE><CLASSIFICATION_TYPE>U</CLASSIFICATION_TYPE><NORAD_CAT_ID>40086</NORAD_CAT_ID><ELEMENT_SET_NO>999</ELEMENT_SET_NO><REV_AT_EPOCH>53157</REV_AT_EPOCH><BSTAR>.31511E-3</BSTAR><MEAN_MOTION_DOT>.1256E-4</MEAN_MOTION_DOT><MEAN_MOTION_DDOT>0</MEAN_MOTION_DDOT></tleParameters></data></segment></body></omm>
<omm id="CCSDS_OMM_VERS" version="2.0">
<header><CREATION_DATE/><ORIGINATOR/></header><body><segment><metadata><OBJECT_NAME>ORBCOMM FM107</OBJECT_NAME><OBJECT_ID>2014-040B</OBJECT_ID><CENTER_NAME>EARTH</CENTER_NAME><REF_FRAME>TEME</REF_FRAME><TIME_SYSTEM>UTC</TIME_SYSTEM><MEAN_ELEMENT_THEORY>SGP4</MEAN_ELEMENT_THEORY></metadata><data><meanElements><EPOCH>2024-07-12T21:58:48.709920</EPOCH><MEAN_MOTION>14.56812839</MEAN_MOTION><ECCENTRICITY>.0000908</ECCENTRICITY><INCLINATION>47.0038</INCLINATION><RA_OF_ASC_NODE>178.1096</RA_OF_ASC_NODE><ARG_OF_PERICENTER>207.6102</ARG_OF_PERICENTER><MEAN_ANOMALY>152.4735</MEAN_ANOMALY></meanElements><tleParameters><EPHEMERIS_TYPE>0</EPHEMERIS_TYPE><CLASSIFICATION_TYPE>U</CLASSIFICATION_TYPE><NORAD_CAT_ID>40087</NORAD_CAT_ID><ELEMENT_SET_NO>999</ELEMENT_SET_NO><REV_AT_EPOCH>53164</REV_AT_EPOCH><BSTAR>.19811E-3</BSTAR><MEAN_MOTION_DOT>.728E-5</MEAN_MOTION_DOT><MEAN_MOTION_DDOT>0</MEAN_MOTION_DDOT></tleParameters></data></segment></body></omm>
<omm id="CCSDS_OMM_VERS" version="2.0">
<header><CREATION_DATE/><ORIGINATOR/></header><body><segment><metadata><OBJECT_NAME>ORBCOMM FM106</OBJECT_NAME><OBJECT_ID>2014-040C</OBJECT_ID><CENTER_NAME>EARTH</CENTER_NAME><REF_FRAME>TEME</REF_FRAME><TIME_SYSTEM>UTC</TIME_SYSTEM><MEAN_ELEMENT_THEORY>SGP4</MEAN_ELEMENT_THEORY></metadata><data><meanElements><EPOCH>2024-07-12T22:23:21.281280</EPOCH><MEAN_MOTION>14.67282353</MEAN_MOTION><ECCENTRICITY>.001822</ECCENTRICITY><INCLINATION>47.0622</INCLINATION><RA_OF_ASC_NODE>26.4597</RA_OF_ASC_NODE><ARG_OF_PERICENTER>289.8987</ARG_OF_PERICENTER><MEAN_ANOMALY>69.9940</MEAN_ANOMALY></meanElements><tleParameters><EPHEMERIS_TYPE>0</EPHEMERIS_TYPE><CLASSIFICATION_TYPE>U</CLASSIFICATION_TYPE><NORAD_CAT_ID>40088</NORAD_CAT_ID><ELEMENT_SET_NO>999</ELEMENT_SET_NO><REV_AT_EPOCH>53361</REV_AT_EPOCH><BSTAR>.3182E-3</BSTAR><MEAN_MOTION_DOT>.1631E-4</MEAN_MOTION_DOT><MEAN_MOTION_DDOT>0</MEAN_MOTION_DDOT></tleParameters></data></segment></body></omm>
<omm id="CCSDS_OMM_VERS" version="2.0">
<header><CREATION_DATE/><ORIGINATOR/></header><body><segment><metadata><OBJECT_NAME>ORBCOMM FM111</OBJECT_NAME><OBJECT_ID>2014-040D</OBJECT_ID><CENTER_NAME>EARTH</CENTER_NAME><REF_FRAME>TEME</REF_FRAME><TIME_SYSTEM>UTC</TIME_SYSTEM><MEAN_ELEMENT_THEORY>SGP4</MEAN_ELEMENT_THEORY></metadata><data><meanElements><EPOCH>2024-07-12T22:23:32.330976</EPOCH><MEAN_MOTION>14.82217809</MEAN_MOTION><ECCENTRICITY>.0032759</ECCENTRICITY><INCLINATION>47.0040</INCLINATION><RA_OF_ASC_NODE>279.9289</RA_OF_ASC_NODE><ARG_OF_PERICENTER>9.2704</ARG_OF_PERICENTER><MEAN_ANOMALY>350.8790</MEAN_ANOMALY></meanElements><tleParameters><EPHEMERIS_TYPE>0</EPHEMERIS_TYPE><CLASSIFICATION_TYPE>U</CLASSIFICATION_TYPE><NORAD_CAT_ID>40089</NORAD_CAT_ID><ELEMENT_SET_NO>999</ELEMENT_SET_NO><REV_AT_EPOCH>53982</REV_AT_EPOCH><BSTAR>.32256E-3</BSTAR><MEAN_MOTION_DOT>.2411E-4</MEAN_MOTION_DOT><MEAN_MOTION_DDOT>0</MEAN_MOTION_DDOT></tleParameters></data></segment></body></omm>
<omm id="CCSDS_OMM_VERS" version="2.0">
<header><CREATION_DATE/><ORIGINATOR/></header><body><segment><metadata><OBJECT_NAME>ORBCOMM FM104</OBJECT_NAME><OBJECT_ID>2014-040E</OBJECT_ID><CENTER_NAME>EARTH</CENTER_NAME><REF_FRAME>TEME</REF_FRAME><TIME_SYSTEM>UTC</TIME_SYSTEM><MEAN_ELEMENT_THEORY>SGP4</MEAN_ELEMENT_THEORY></metadata><data><meanElements><EPOCH>2024-07-12T17:55:23.309184</EPOCH><MEAN_MOTION>14.55287212</MEAN_MOTION><ECCENTRICITY>.0015956</ECCENTRICITY><INCLINATION>47.0036</INCLINATION><RA_OF_ASC_NODE>208.5372</RA_OF_ASC_NODE><ARG_OF_PERICENTER>93.6368</ARG_OF_PERICENTER><MEAN_ANOMALY>266.6341</MEAN_ANOMALY></meanElements><tleParameters><EPHEMERIS_TYPE>0</EPHEMERIS_TYPE><CLASSIFICATION_TYPE>U</CLASSIFICATION_TYPE><NORAD_CAT_ID>40090</NORAD_CAT_ID><ELEMENT_SET_NO>999</ELEMENT_SET_NO><REV_AT_EPOCH>53115</REV_AT_EPOCH><BSTAR>.20046E-3</BSTAR><MEAN_MOTION_DOT>.709E-5</MEAN_MOTION_DOT><MEAN_MOTION_DDOT>0</MEAN_MOTION_DDOT></tleParameters></data></segment></body></omm>

</ndm>
